OBJECT_NAME,OBJECT_ID,EPOCH,MEAN_MOTION,ECCENTRICITY,INCLINATION,RA_OF_ASC_NODE,ARG_OF_PERICENTER,MEAN_ANOMALY,EPHEMERIS_TYPE,CLASSIFICATION_TYPE,NORAD_CAT_ID,ELEMENT_SET_NO,REV_AT_EPOCH,BSTAR,MEAN_MOTION_DOT,MEAN_MOTION_DDOT
STARLINK-4272,2022-062AN,2026-07-18T20:00:01.999008,15.23090904,.0000899,53.1605,154.6081,72.6094,268.9420,0,U,52866,999,583,.31227E-2,.75007E-3,0
STARLINK-4126,2022-062AP,2026-07-18T13:42:53.449344,15.34385406,.0000786,53.1610,152.4362,97.1477,262.9615,0,U,52867,999,22574,-.68959E-4,-.2704E-4,0
STARLINK-4261,2022-062AQ,2026-07-18T20:00:01.999008,15.20853620,.0000517,53.1601,154.7608,11.7928,286.5929,0,U,52868,999,583,.32335E-2,.72693E-3,0
STARLINK-4266,2022-062AR,2026-07-18T20:00:01.999008,15.34383921,.0001199,53.1599,143.0481,102.1998,77.1963,0,U,52869,999,583,.79599E-3,.26599E-3,0
STARLINK-4207,2022-062AT,2026-07-18T06:09:25.619328,15.35398749,.00016766,53.1621,144.2101,96.4688,263.6506,0,U,52871,999,22582,.9750636E-5,-.41E-6,0
STARLINK-4213,2022-062AU,2026-07-18T03:30:59.234688,15.31706761,.00012234,53.1619,144.8670,51.4961,308.6150,0,U,52872,999,22580,.8899279E-5,-.89E-6,0
STARLINK-4211,2022-062AV,2026-07-18T20:45:28.389024,15.35400445,.0001233,53.1613,140.9808,102.3277,257.7864,0,U,52873,999,22592,.21929E-4,.384E-5,0
STARLINK-4193,2022-062AX,2026-07-18T20:28:10.388064,15.34394102,.0001172,53.1618,140.9491,88.7739,271.3397,0,U,52875,999,22592,.27107E-4,.54E-5,0
STARLINK-4200,2022-062AY,2026-07-18T13:21:31.123872,15.31698001,.0001127,53.1600,142.5741,97.6940,262.4189,0,U,52876,999,22587,.17304E-4,.172E-5,0
STARLINK-4214,2022-062AZ,2026-07-18T20:00:01.999008,15.34081256,.0002002,53.1595,143.5473,96.0741,89.2321,0,U,52877,999,578,.20545E-2,.68978E-3,0
STARLINK-4171,2022-062BA,2026-07-18T03:07:19.490016,15.34386442,.00014668,53.1619,144.2978,69.8479,290.2682,0,U,52878,999,22581,-.54256679E-4,-.2208E-4,0
STARLINK-4139,2022-062BB,2026-07-18T02:31:03.095616,15.34386220,.00012327,53.1613,144.4951,81.3493,278.7649,0,U,52879,999,22581,.11669043E-4,.18E-6,0
STARLINK-4186,2022-062BC,2026-07-18T13:36:42.185088,15.34387796,.0001741,53.1627,142.3591,84.7979,275.3222,0,U,52880,999,22588,-.24294E-5,-.459E-5,0
STARLINK-4181,2022-062BE,2026-07-18T20:07:08.448672,15.11911890,.0001351,53.1595,144.0943,68.8886,291.2251,0,U,52882,999,22588,.20571E-3,.3268E-4,0
GLOBALSTAR M087,2022-064A,2026-07-18T18:09:52.330752,12.62269384,.0000899,52.0016,326.3411,88.7530,271.3439,0,U,52888,999,19512,.81459E-4,-.89E-6,0
PVSAT,2022-065A,2026-07-18T15:54:14.173920,14.59559436,.0008011,98.2327,338.8050,281.4822,78.5478,0,U,52894,999,21694,.30096E-4,.96E-6,0
KSLV-II DUMMY,2022-065B,2026-07-18T20:46:44.963616,14.58695424,.0007139,98.2388,339.4473,303.1109,56.9405,0,U,52895,999,21697,.10266E-4,.1E-7,0
STEP CUBE LAB-II,2022-065D,2026-07-18T20:43:11.902944,14.63346291,.0007293,98.2270,343.6744,289.2520,70.7893,0,U,52897,999,21613,.94502E-4,.44E-5,0
RANDEV,2022-065E,2026-07-18T20:32:40.009632,14.63734624,.0006649,98.2254,344.0326,289.9567,70.0918,0,U,52898,999,21588,.76163E-4,.348E-5,0
SNUGLITE-II,2022-065F,2026-07-18T07:49:09.164928,14.64397130,.00061597,98.2241,344.1082,288.8455,71.2080,0,U,52899,999,21555,.87212E-4,.412E-5,0
MIMAN,2022-065G,2026-07-18T16:05:41.758080,14.61873357,.0006324,98.2302,342.0015,290.9287,69.1236,0,U,52900,999,21504,.49349E-4,.199E-5,0
CMS-02 (GSAT-24),2022-067A,2026-07-18T20:59:34.620000,1.00274232,.0000943,0.0567,251.0553,112.7639,330.7273,0,U,52903,999,1492,0,-.171E-5,0
MEASAT 3D,2022-067B,2026-07-18T20:01:38.678016,1.00270611,.0000513,0.0369,324.9624,67.8413,295.7369,0,U,52904,999,1496,0,-.248E-5,0
YAOGAN-35 02A,2022-068A,2026-07-18T15:14:53.778624,15.24527169,.0010494,34.9916,300.3322,357.2135,2.8520,0,U,52907,999,22669,.13055E-3,.326E-4,0
YAOGAN-35 02B,2022-068B,2026-07-18T09:38:22.167744,15.65257909,.00037827,34.9933,209.4985,205.5243,154.5298,0,U,52908,999,22758,.63100704E-3,.65308E-3,0
GAOFEN-12 03,2022-069A,2026-07-18T19:52:14.321856,14.80077312,.0002366,97.8233,86.8948,68.1851,291.9613,0,U,52912,999,21929,.70196E-6,-.45E-6,0
SES-22,2022-071A,2026-07-18T17:41:47.656896,1.00272743,.0000925,0.0435,248.8450,220.0810,314.0409,0,U,52933,999,783,0,.98E-6,0
DS-EO,2022-072A,2026-07-18T19:50:37.665312,15.14070774,.0003348,9.9949,307.0377,47.9396,312.1104,0,U,52935,999,22331,.11009E-3,.2884E-4,0
POEM,2022-072E,2026-07-18T03:55:40.690560,15.24390222,.00240858,9.9505,195.1481,296.9955,62.7803,0,U,52939,999,22424,.13408161E-3,.4372E-4,0
WFOV (USA 332),2022-073A,2026-07-18T17:12:50.432832,1.00275860,.0000992,3.7899,78.1295,187.4586,48.4054,0,U,52940,999,1468,0,-.371E-5,0
COSMOS 2557 [GLONASS-K],2022-075A,2026-07-15T17:36:40.979232,2.13102146,.00108557,64.2802,313.4798,271.2186,88.6706,0,U,52984,999,3132,0,-.64E-6,0
STARLINK-4260,2022-076A,2026-07-18T18:45:59.395680,15.33546307,.0001243,53.1608,221.6448,86.8198,273.2947,0,U,52986,999,22268,.16575E-4,.172E-5,0
STARLINK-4259,2022-076B,2026-07-18T20:00:01.999008,15.27628972,.0002226,53.1586,234.0333,78.2565,79.8174,0,U,52987,999,583,.97682E-3,.26482E-3,0
STARLINK-4291,2022-076C,2026-07-18T11:52:43.527072,15.33543171,.00013496,53.1592,222.7377,81.7910,278.3245,0,U,52988,999,22264,.1080938E-3,.3183E-4,0
STARLINK-4293,2022-076D,2026-07-18T20:00:01.999008,15.58726104,.0001553,53.2165,216.1266,87.3005,47.7943,0,U,52989,999,594,.23179E-2,.185513E-2,0
STARLINK-4286,2022-076E,2026-07-18T11:35:22.813152,15.33563910,.00017284,53.1626,232.9938,66.6252,293.4932,0,U,52990,999,22250,.16184534E-3,.4956E-4,0
STARLINK-4285,2022-076F,2026-07-18T06:52:29.231616,15.33544831,.00015302,53.1608,233.9381,80.6630,279.4545,0,U,52991,999,22247,.23785431E-4,.409E-5,0
STARLINK-4269,2022-076G,2026-07-18T20:00:01.999008,15.29492285,.0001196,53.1591,234.1533,63.4666,111.8981,0,U,52992,999,579,.65486E-3,.18667E-3,0
STARLINK-4256,2022-076J,2026-07-18T11:19:50.660832,15.34389942,.00011054,53.1598,222.6770,72.3667,287.7456,0,U,52994,999,22264,.34689151E-4,.796E-5,0
STARLINK-4296,2022-076K,2026-07-18T10:50:12.613632,15.35394854,.00010243,53.1611,223.3332,73.3422,286.7693,0,U,52995,999,22263,.26986861E-4,.561E-5,0
STARLINK-4295,2022-076L,2026-07-18T20:00:01.999008,15.35391127,.0001003,53.1593,221.9913,87.0852,336.8350,0,U,52996,999,585,.36897E-3,.12508E-3,0
STARLINK-4254,2022-076N,2026-07-18T18:37:22.944000,15.33544304,.0001238,53.1602,221.1294,77.0191,283.0950,0,U,52998,999,22269,.1102E-4,-.1E-6,0
STARLINK-4217,2022-076P,2026-07-18T18:32:53.342304,15.34870724,.0002656,53.1611,221.2733,77.4276,282.7024,0,U,52999,999,22269,-.18666E-2,-.63866E-3,0
STARLINK-4194,2022-076Q,2026-07-18T08:23:41.619264,15.35404455,.00014431,53.1604,223.4512,60.4076,299.7071,0,U,53000,999,22262,.24986912E-4,.491E-5,0
STARLINK-4190,2022-076R,2026-07-18T07:13:48.127872,15.33544850,.00014974,53.1589,224.0526,74.6128,285.5040,0,U,53001,999,22261,-.17418252E-4,-.946E-5,0
STARLINK-4121,2022-076S,2026-07-18T18:10:10.028928,15.33561380,.000153,53.1608,221.7673,70.9763,289.1405,0,U,53002,999,22268,.62059E-4,.1669E-4,0
STARLINK-4255,2022-076T,2026-07-18T07:22:37.784928,15.35391337,.00015749,53.1591,223.4651,72.7473,287.3702,0,U,53003,999,22261,.75146478E-4,.2241E-4,0
STARLINK-4253,2022-076U,2026-07-18T07:17:25.639008,15.08829658,.00011783,53.1589,227.4861,83.1658,276.9467,0,U,53004,999,22256,.7046112E-5,-.176E-5,0
STARLINK-4288,2022-076V,2026-07-18T06:54:05.661792,15.33556008,.00011431,53.1605,224.0894,94.6803,265.4330,0,U,53005,999,22261,.54297973E-4,.1414E-4,0
STARLINK-4290,2022-076W,2026-07-18T20:00:01.999008,15.35388386,.0001107,53.1590,222.3717,93.2684,295.3056,0,U,53006,999,583,.35049E-3,.1186E-3,0
STARLINK-4215,2022-076X,2026-07-18T20:00:01.999008,15.34336287,.0001271,53.1595,222.4756,52.2253,2.7127,0,U,53007,999,583,.25533E-2,.86717E-3,0
STARLINK-4275,2022-076Y,2026-07-18T10:27:52.320672,15.35397063,.00014706,53.1614,223.6202,58.3924,301.7222,0,U,53008,999,22263,.80786969E-4,.2438E-4,0
STARLINK-4277,2022-076Z,2026-07-18T11:06:38.014272,15.08837524,.00012072,53.1597,216.7697,83.0190,277.0939,0,U,53009,999,22272,.30583432E-4,.199E-5,0
STARLINK-4263,2022-076AA,2026-07-18T08:04:47.817120,15.33546498,.00012932,53.1607,223.7282,82.1225,277.9924,0,U,53010,999,22262,-.3991762E-5,-.504E-5,0
STARLINK-4265,2022-076AB,2026-07-18T06:15:10.455552,15.08831039,.00012419,53.1599,217.6794,70.3511,289.7615,0,U,53011,999,22269,.26486011E-4,.134E-5,0
STARLINK-4271,2022-076AC,2026-07-18T19:18:08.424288,15.08836036,.0001189,53.1596,225.2374,55.4621,304.6483,0,U,53012,999,22264,.74034E-4,.89E-5,0
STARLINK-4177,2022-076AD,2026-07-18T20:00:01.999008,15.35386362,.0001307,53.1613,212.0676,84.4452,314.3221,0,U,53013,999,574,.87004E-3,.30076E-3,0
STARLINK-4183,2022-076AE,2026-07-18T20:00:01.999008,15.16815000,.0003326,53.1610,214.9364,111.6788,169.0314,0,U,53014,999,578,.27534E-2,.54884E-3,0
STARLINK-4262,2022-076AF,2026-07-18T07:29:21.560640,15.08830169,.00010756,53.1590,217.4469,52.1881,307.9207,0,U,53015,999,22270,-.1586456E-4,-.54E-5,0
STARLINK-4283,2022-076AG,2026-07-18T17:41:25.533312,15.29360412,.0001532,53.1599,213.6185,82.3836,277.7338,0,U,53016,999,22279,.83682E-5,-.115E-5,0
STARLINK-4281,2022-076AH,2026-07-18T20:00:01.999008,15.73680817,.0000853,53.2230,189.8869,79.3740,270.5876,0,U,53017,999,583,-.44953E-2,-.60066E-2,0
STARLINK-4279,2022-076AJ,2026-07-18T20:00:01.999008,15.62538139,.0001195,53.2284,191.7974,74.4231,355.0408,0,U,53018,999,581,-.77814E-2,-.652804E-2,0
STARLINK-4282,2022-076AK,2026-07-18T11:04:17.488128,15.08017947,.00011624,53.1592,217.0973,83.3290,276.7834,0,U,53019,999,22272,.23321905E-4,.77E-6,0
STARLINK-4287,2022-076AL,2026-07-18T07:34:39.154080,15.08833438,.00009681,53.1596,217.4316,80.6573,279.4528,0,U,53020,999,22270,.28354381E-4,.163E-5,0
STARLINK-4216,2022-076AN,2026-07-18T20:00:01.999008,15.21057645,.0001542,53.1604,214.7716,63.8653,103.1741,0,U,53022,999,578,.23818E-2,.5364E-3,0
STARLINK-4284,2022-076AP,2026-07-18T11:38:26.140128,15.08826179,.00012554,53.1594,216.6620,83.2974,276.8161,0,U,53023,999,22273,.25936902E-4,.125E-5,0
